CRE (WAAS/PRN 138)      
1 28868U 05036A   24247.69393631 -.00000080  00000+0  00000+0 0  9992
2 28868   2.6301  84.6598 0002922  59.4848 341.6901  1.00272805 39921
IOR-W (EGNOS/PRN 126)   
1 28899U 05044A   24247.67688152 -.00000265  00000+0  00000+0 0  9993
2 28899   4.2748  42.7260 0001945 144.9848 182.7688  1.00272806 68988
GSAT-8 (GAGAN/PRN 127)  
1 37605U 11022A   24247.91230021  .00000079  00000+0  00000+0 0  9998
2 37605   0.4376  90.4106 0005404 144.7099 131.8965  1.00271551 46689
LUCH 5A (SDCM/PRN 140)  
1 37951U 11074B   24247.82028681 -.00000050  00000+0  00000+0 0  9996
2 37951   7.0828  83.7176 0004111  78.8069 283.2481  1.00275225 46528
SES-5 (EGNOS/PRN 136)   
1 38652U 12036A   24248.00270420  .00000028  00000+0  00000+0 0  9999
2 38652   0.0705 299.3550 0002029 228.9244 181.2874  1.00272371 44535
GSAT-10 (GAGAN/PRN 128) 
1 38779U 12051B   24247.44597751 -.00000173  00000+0  00000+0 0  9994
2 38779   0.0674 265.9389 0001631 357.2085 323.4845  1.00272714 43578
LUCH 5B (SDCM/PRN 125)  
1 38977U 12061A   24247.78379704 -.00000139  00000+0  00000+0 0  9990
2 38977   9.0582  55.9941 0006125 131.0147  62.2550  1.00271474 43074
ASTRA 5B (EGNOS/PRN 123)
1 39617U 14011B   24247.89563390  .00000131  00000+0  00000+0 0  9998
2 39617   0.0934 299.6279 0002947 247.6251 142.1626  1.00271476 38132
LUCH 5V (SDCM/PRN 141)  
1 39727U 14023A   24248.02051469 -.00000273  00000+0  00000+0 0  9996
2 39727   3.4906  75.4417 0003226 134.6844 235.6554  1.00272607555980
GSAT-15 (GAGAN/PRN 139) 
1 41028U 15065A   24247.88205809 -.00000264  00000+0  00000+0 0  9992
2 41028   0.0930 275.4659 0001908 219.1576 259.9160  1.00270144 32260
E 117 W B (WAAS/PRN 131)
1 41589U 16038B   24247.69228559 -.00000018  00000+0  00000+0 0  9998
2 41589   0.0327   9.6683 0000154  93.2978  12.5494  1.00271091 30145
SES-15 (WAAS/PRN 133)   
1 42709U 17026A   24247.72410595  .00000053  00000+0  00000+0 0  9996
2 42709   0.0255  43.8470 0000260 139.8567 291.1486  1.00269594   916
QZS-2 (QZSS/PRN 194)    
1 42738U 17028A   24246.88349244 -.00000164  00000+0  00000+0 0  9992
2 42738  40.4543 252.6394 0751265 270.1800 278.9744  1.00264124 26583
QZS-3 (QZSS/PRN 199)    
1 42917U 17048A   24247.86854851 -.00000355  00000+0  00000+0 0  9999
2 42917   0.0550 184.1355 0001756 344.1367 254.8440  1.00267427 25721
QZS-4 (QZSS/PRN 195)    
1 42965U 17062A   24247.61299448 -.00000339  00000+0  00000+0 0  9998
2 42965  40.4786 351.7995 0749435 269.3513  82.7409  1.00280973 25284
BEIDOU-3 G1 (PRN 130)   
1 43683U 18085A   24247.67688152 -.00000286  00000+0  00000+0 0  9993
2 43683   2.3801 106.6893 0002432  29.9089 230.2734  1.00266135 21526
BEIDOU-3 G2 (PRN 144)   
1 45344U 20017A   24247.88625914 -.00000146  00000+0  00000+0 0  9992
2 45344   2.4168  32.4498 0003075 173.2647 176.8688  1.00271701 16727
BEIDOU-3 G3 (PRN 143)   
1 45807U 20040A   24246.66437307 -.00000363  00000+0  00000+0 0  9995
2 45807   0.9171  50.3777 0002078 342.9675 298.4796  1.00264318 15529
GALAXY 30 (WAAS/PRN 135)
1 46114U 20056C   24248.11986775  .00000031  00000+0  00000+0 0  9995
2 46114   0.0216 130.1686 0002260  43.2008  88.4995  1.00272894 14875
QZS-1R (QZSS/PRN 196)   
1 49336U 21096A   24247.47714341 -.00000262  00000+0  00000+0 0  9992
2 49336  36.1035  89.3402 0742463 269.5064 289.4866  1.00296149 10476
